{"fetched_at":"2026-04-10T13:06:35Z","count":2631,"tles":[{"name":"KUIPER-00193","line1":"1 68576U 26072D   26099.50151636  .00017529  00000+0  47799-3 0  9994","line2":"2 68576  51.8743 149.0740 0003479 101.4980 258.6397 15.37534610   817","category":"Other"}]}