{
  "norad_id": 68576,
  "name": "KUIPER-00193",
  "history": [
    {
      "epoch": "2026-04-09T12:02:11.012640Z",
      "apogee_km": 455.77904335244057,
      "perigee_km": 451.02565827214676,
      "latitude_deg": -4.399677494628976e-05,
      "longitude_deg": 130.7792791279991,
      "height_km": 454.63435455978833,
      "semi_major_axis_km": 6831.539350812293,
      "eccentricity": 0.0003479,
      "inclination_deg": 51.8743,
      "raan_deg": 149.074,
      "arg_perigee_deg": 101.498,
      "mean_anomaly_deg": 258.6397,
      "mean_motion_rev_day": 15.3753461
    }
  ]
}